H1 CPF  1  HTS 2022  5 28 12  6481 larets           NONE
H2  0304206 5557    27944 2022 05 28  0  0  0 2022 06 02  0  0  0   180 1 1  0 0 0
H5  0.0560 
H9 
10 0 59728  10440.00000  0   -6908856.428    1372386.658     624565.095
10 0 59728  10620.00000  0   -6840851.492    1649163.469    -710414.637
10 0 59728  10800.00000  0   -6518314.490    1861001.528   -2019445.738
10 0 59728  10980.00000  0   -5955001.265    1993762.088   -3254753.377
10 0 59728  11160.00000  0   -5173736.494    2036674.266   -4371339.457
10 0 59728  11340.00000  0   -4205435.652    1982936.780   -5328622.172
10 0 59728  11520.00000  0   -3087829.241    1830140.680   -6091880.584
10 0 59728  11700.00000  0   -1863959.312    1580498.172   -6633464.095
10 0 59728  11880.00000  0    -580510.033    1240869.535   -6933739.417
10 0 59728  12060.00000  0     713958.493     822588.531   -6981751.839
10 0 59728  12240.00000  0    1970812.371     341095.079   -6775605.513
10 0 59728  12420.00000  0    3143142.933    -184619.127   -6322553.879
10 0 59728  12600.00000  0    4187503.547    -732737.123   -5638785.986
10 0 59728  12780.00000  0    5065529.117   -1279494.356   -4748912.446
10 0 59728  12960.00000  0    5745390.383   -1800182.620   -3685153.951
10 0 59728  13140.00000  0    6203021.162   -2270242.655   -2486231.996
10 0 59728  13320.00000  0    6423055.161   -2666397.836   -1195986.140
10 0 59728  13500.00000  0    6399416.689   -2967773.058     138239.059
10 0 59728  13680.00000  0    6135526.826   -3156938.972    1467374.288
10 0 59728  13860.00000  0    5644104.976   -3220823.112    2742497.848
10 0 59728  14040.00000  0    4946565.218   -3151434.601    3916708.336
10 0 59728  14220.00000  0    4072047.334   -2946360.705    4946902.109
10 0 59728  14400.00000  0    3056143.547   -2609016.177    5795380.127
10 0 59728  14580.00000  0    1939384.384   -2148634.218    6431220.749
10 0 59728  14760.00000  0     765569.087   -1580003.754    6831369.202
10 0 59728  14940.00000  0    -419984.122    -922971.848    6981422.371
10 0 59728  15120.00000  0   -1572196.506    -201731.336    6876096.715
10 0 59728  15300.00000  0   -2647934.624     556078.643    6519381.320
10 0 59728  15480.00000  0   -3607613.670    1320430.599    5924380.053
10 0 59728  15660.00000  0   -4416651.869    2060090.498    5112847.128
10 0 59728  15840.00000  0   -5046731.556    2743885.616    4114422.359
10 0 59728  16020.00000  0   -5476816.507    3342012.419    2965576.114
10 0 59728  16200.00000  0   -5693881.742    3827328.055    1708296.116
10 0 59728  16380.00000  0   -5693326.207    4176570.557     388554.497
10 0 59728  16560.00000  0   -5479039.401    4371442.491    -945394.286
10 0 59728  16740.00000  0   -5063118.217    4399502.499   -2244809.293
10 0 59728  16920.00000  0   -4465244.535    4254817.936   -3462280.830
10 0 59728  17100.00000  0   -3711754.617    3938340.272   -4553480.630
10 0 59728  17280.00000  0   -2834459.285    3457992.940   -5478766.828
10 0 59728  17460.00000  0   -1869284.170    2828476.520   -6204587.246
10 0 59728  17640.00000  0    -854792.816    2070805.271   -6704647.526
10 0 59728  17820.00000  0     169347.683    1211593.418   -6960808.479
10 0 59728  18000.00000  0    1163894.091     282125.116   -6963700.681
10 0 59728  18180.00000  0    2091504.983    -682764.373   -6713054.333
10 0 59728  18360.00000  0    2918124.520   -1645968.096   -6217730.351
10 0 59728  18540.00000  0    3614228.865   -2569507.187   -5495454.633
10 0 59728  18720.00000  0    4155902.648   -3416016.041   -4572255.799
10 0 59728  18900.00000  0    4525702.200   -4150265.741   -3481594.508
10 0 59728  19080.00000  0    4713264.436   -4740655.309   -2263204.065
10 0 59728  19260.00000  0    4715636.169   -5160609.385    -961666.824
10 0 59728  19440.00000  0    4537291.726   -5389808.825     375234.247
10 0 59728  19620.00000  0    4189827.635   -5415178.633    1698321.082
10 0 59728  19800.00000  0    3691346.854   -5231573.846    2958900.320
10 0 59728  19980.00000  0    3065561.788   -4842123.269    4110622.717
10 0 59728  20160.00000  0    2340670.796   -4258216.333    5111235.599
10 0 59728  20340.00000  0    1548071.713   -3499136.339    5924151.627
10 0 59728  20520.00000  0     720979.783   -2591366.183    6519773.679
10 0 59728  20700.00000  0    -106982.083   -1567606.759    6876530.111
10 0 59728  20880.00000  0    -903153.638    -465559.777    6981601.923
10 0 59728  21060.00000  0   -1637118.268     673481.049    6831339.296
10 0 59728  21240.00000  0   -2281855.285    1806181.701    6431360.467
10 0 59728  21420.00000  0   -2814726.958    2888810.106    5796337.067
10 0 59728  21600.00000  0   -3218270.934    3878918.934    4949474.733
10 0 59728  21780.00000  0   -3480776.375    4737015.012    3921697.394
10 0 59728  21960.00000  0   -3596621.019    5428154.276    2750547.773
10 0 59728  22140.00000  0   -3566351.832    5923392.421    1478830.237
10 0 59728  22320.00000  0   -3396504.572    6201019.170     153043.199
10 0 59728  22500.00000  0   -3099171.245    6247521.441   -1178340.357
10 0 59728  22680.00000  0   -2691333.421    6058217.564   -2466683.652
10 0 59728  22860.00000  0   -2193988.619    5637518.570   -3664999.403
10 0 59728  23040.00000  0   -1631125.022    4998816.235   -4729673.126
10 0 59728  23220.00000  0   -1028604.178    4164013.073   -5622035.621
10 0 59728  23400.00000  0    -413005.289    3162727.468   -6309730.188
10 0 59728  23580.00000  0     189520.757    2031208.599   -6767838.395
10 0 59728  23760.00000  0     754336.232     811010.238   -6979728.923
10 0 59728  23940.00000  0    1259300.227    -452522.717   -6937624.106
10 0 59728  24120.00000  0    1685621.523   -1711912.425   -6642873.693
10 0 59728  24300.00000  0    2018551.994   -2919298.061   -6105931.506
10 0 59728  24480.00000  0    2247904.399   -4028231.577   -5346041.217
10 0 59728  24660.00000  0    2368376.490   -4995475.773   -4390618.253
10 0 59728  24840.00000  0    2379664.330   -5782725.922   -3274325.314
10 0 59728  25020.00000  0    2286357.637   -6358190.631   -2037866.223
10 0 59728  25200.00000  0    2097615.778   -6697957.802    -726518.511
10 0 59728  25380.00000  0    1826634.634   -6787063.317     611549.320
10 0 59728  25560.00000  0    1489927.613   -6620191.813    1927103.211
10 0 59728  25740.00000  0    1106457.547   -6201971.068    3171727.391
10 0 59728  25920.00000  0     696664.679   -5546831.964    4299674.131
10 0 59728  26100.00000  0     281446.312   -4678454.915    5269586.753
10 0 59728  26280.00000  0    -118856.751   -3628837.904    6046028.158
10 0 59728  26460.00000  0    -485413.058   -2437034.790    6600756.448
10 0 59728  26640.00000  0    -801749.609   -1147636.120    6913703.755
10 0 59728  26820.00000  0   -1054463.706     190933.195    6973650.220
10 0 59728  27000.00000  0   -1233773.393    1528246.973    6778586.667
10 0 59728  27180.00000  0   -1333886.718    2813776.154    6335757.723
10 0 59728  27360.00000  0   -1353180.425    3998790.495    5661392.479
10 0 59728  27540.00000  0   -1294185.058    5038205.271    4780130.065
10 0 59728  27720.00000  0   -1163377.955    5892313.667    3724150.951
10 0 59728  27900.00000  0    -970793.018    6528336.281    2532029.123
10 0 59728  28080.00000  0    -729466.259    6921726.015    1247338.225
10 0 59728  28260.00000  0    -454732.597    7057158.535     -82951.464
10 0 59728  28440.00000  0    -163412.009    6929155.685   -1410214.378
10 0 59728  28620.00000  0     127071.731    6542306.441   -2685984.484
10 0 59728  28800.00000  0     399589.687    5911068.141   -3863752.015
10 0 59728  28980.00000  0     638180.508    5059177.368   -4900665.154
10 0 59728  29160.00000  0     828857.581    4018701.212   -5759074.337
10 0 59728  29340.00000  0     960310.555    2828779.753   -6407861.926
10 0 59728  29520.00000  0    1024468.779    1534121.331   -6823518.297
10 0 59728  29700.00000  0    1016906.362     183319.246   -6990940.406
10 0 59728  29880.00000  0     937075.019   -1172951.765   -6903947.191
10 0 59728  30060.00000  0     788355.671   -2483804.253   -6565499.270
10 0 59728  30240.00000  0     577929.030   -3700012.866   -5987627.176
10 0 59728  30420.00000  0     316465.006   -4775856.342   -5191065.537
10 0 59728  30600.00000  0      17639.902   -5670861.121   -4204578.855
10 0 59728  30780.00000  0    -302504.349   -6351383.108   -3063990.157
10 0 59728  30960.00000  0    -626336.028   -6791957.187   -1810923.563
10 0 59728  31140.00000  0    -935510.579   -6976344.999    -491294.078
10 0 59728  31320.00000  0   -1211905.603   -6898213.673     846406.494
10 0 59728  31500.00000  0   -1438565.263   -6561399.038    2152949.700
10 0 59728  31680.00000  0   -1600602.774   -5979734.388    3380254.148
10 0 59728  31860.00000  0   -1686008.088   -5176447.629    4483221.162
10 0 59728  32040.00000  0   -1686315.953   -4183165.736    5421429.775
10 0 59728  32220.00000  0   -1597105.801   -3038592.383    6160624.233
10 0 59728  32400.00000  0   -1418308.243   -1786923.097    6673940.375
10 0 59728  32580.00000  0   -1154306.163    -476086.753    6942832.223
10 0 59728  32760.00000  0    -813836.611     844115.577    6957690.817
10 0 59728  32940.00000  0    -409695.058    2123906.708    6718147.421
10 0 59728  33120.00000  0      41752.108    3315403.722    6233062.185
10 0 59728  33300.00000  0     521226.410    4374402.249    5520199.722
10 0 59728  33480.00000  0    1007343.622    5262020.714    4605601.535
10 0 59728  33660.00000  0    1477541.379    5946149.242    3522665.235
10 0 59728  33840.00000  0    1909090.696    6402648.181    2310955.815
10 0 59728  34020.00000  0    2280153.708    6616248.832    1014767.857
10 0 59728  34200.00000  0    2570826.695    6581092.586    -318511.369
10 0 59728  34380.00000  0    2764118.989    6300884.209   -1640160.700
10 0 59728  34560.00000  0    2846819.245    5788657.946   -2901933.980
10 0 59728  34740.00000  0    2810205.948    5066166.746   -4057845.740
99
